O3B MPOWER F1           
1 54755U 22174A   24112.31696041 -.00000021  00000+0  00000+0 0  9994
2 54755   0.0654   3.0508 0006667  33.1556 223.5525  5.00114760 25990
